NAVSTAR 68 (USA 242)    
1 39166U 13023A   26064.97752527 -.00000015  00000+0  00000+0 0  9991
2 39166  54.5849 273.1765 0141644  49.9392 311.3205  2.00564238 93815
INSAT-3D                
1 39216U 13038B   26065.78864368 -.00000342  00000+0  00000+0 0  9993
2 39216   1.6614  83.8811 0001687 248.1233 245.9026  1.00272492 46055
NAVSTAR 69 (USA 248)    
1 39533U 14008A   26065.47472284  .00000007  00000+0  00000+0 0  9998
2 39533  53.6379 153.5106 0082368 228.3720 130.9608  2.00553229 87628
LUCH-5V                 
1 39727U 14023A   26065.60036917 -.00000271  00000+0  00000+0 0  9998
2 39727   4.8804  70.7549 0003084 285.1366 119.2902  1.00271330 43336
NAVSTAR 70 (USA 251)    
1 39741U 14026A   26064.75554898 -.00000099  00000+0  00000+0 0  9993
2 39741  56.5458 335.5470 0039849 324.6009  35.1717  2.00568639 86460
NAVSTAR 71 (USA 256)    
1 40105U 14045A   26063.84593997  .00000005  00000+0  00000+0 0  9998
2 40105  55.2815  92.6206 0031508 120.4743 239.9033  2.00551558 83989
GSAT0201 (GALILEO 5)    
1 40128U 14050A   26062.23675925 -.00000027  00000+0  00000+0 0  9998
2 40128  48.9889 277.7718 1657553 175.2875 186.5034  1.85520013 76352
GSAT0202 (GALILEO 6)    
1 40129U 14050B   26065.18759423 -.00000036  00000+0  00000+0 0  9992
2 40129  49.0025 276.7356 1658927 176.1364 185.3302  1.85520810 78579
NAVSTAR 72 (USA 258)    
1 40294U 14068A   26065.21974178 -.00000078  00000+0  00000+0 0  9990
2 40294  56.9208  34.9218 0062856  68.0586 292.5929  2.00569976 83146
COSMOS 2501 [GLONASS-K] 
1 40315U 14075A   26060.84023701 -.00000015  00000+0  00000+0 0  9994
2 40315  63.6170 194.0851 0020735 205.7160 154.1408  2.13101099 87569
NAVSTAR 73 (USA 260)    
1 40534U 15013A   26065.35117279  .00000016  00000+0  00000+0 0  9995
2 40534  53.1859 208.4290 0108755  39.8054 320.9401  2.00557521 79764
GSAT0203 (GALILEO 7)    
1 40544U 15017A   26058.52158611 -.00000103  00000+0  00000+0 0  9994
2 40544  56.8234 344.5881 0005161 295.0116  64.9415  1.70475495 67337
GSAT0204 (GALILEO 8)    
1 40545U 15017B   26058.19060141 -.00000102  00000+0  00000+0 0  9997
2 40545  56.8295 344.6151 0004389 286.3298  73.6287  1.70475370 30371
NAVSTAR 74 (USA 262)    
1 40730U 15033A   26065.51165918 -.00000012  00000+0  00000+0 0  9993
2 40730  54.0631 271.3180 0114550  29.0223 331.6302  2.00561568 77938
METEOSAT-11 (MSG-4)     
1 40732U 15034A   26065.79736338  .00000059  00000+0  00000+0 0  9996
2 40732   2.9437  71.6666 0001807 271.0228 118.2219  1.00266852  6193
GSAT0205 (GALILEO 9)    
1 40889U 15045A   26043.95434207  .00000078  00000+0  00000+0 0  9996
2 40889  53.6403 225.6057 0359599  59.9658 303.5577  1.67410800 64211
GSAT0206 (GALILEO 10)   
1 40890U 15045B   26065.21845735  .00000020  00000+0  00000+0 0  9990
2 40890  54.9806 224.4444 0003724  50.3393 309.6334  1.70473773 65286
